#dP2023 11 20  6  0  0.00000000      96 __u+U IGS20 EXT  IAC
## 2289 108000.00000000   900.00000000 60268 0.2500000000000
+  118   C06C07C08C09C10C11C12C13C14C16C19C20C21C22C23C24C25
+        C26C27C28C29C30C32C33C34C35C36C37C38C39C40C41C42C43
+        C44C45C46E02E03E04E05E07E08E09E10E11E12E13E15E19E21
+        E24E25E26E27E30E31E33E34E36G01G02G03G04G05G06G07G08
+        G09G10G11G12G13G14G15G16G17G18G19G20G21G22G23G24G25
+        G26G27G28G29G30G31G32J02J03J04R01R02R03R04R05R07R08
+        R09R11R12R13R14R15R16R17R18R19R20R21R22R24R25R26  0
++        10 10 11 10 10 10  9 15  9 10  9  9  8  8 10  8  9
++         8  8  9  9  8  9  9  9  9  8  9 12 10 11  8  8  9
++         8  9 10  9  9  8  9  9  9  8  8  8  9  8  9  8  8
++         8  9  8  8  9  9  8  8  8  8  9  8  8  8  9  9  8
++         8  9  8  8  8  9  8  9  9  8  8  8  8  9  9 10  9
++         9  8  9  8  8  9  9  9  9  9  8  9  8  9  9  9  8
++         9  9 10  9  9  8 10  9  9  8  8  8  8  9  9  9  0
%c M  cc GPS ccc cccc cccc cccc cccc ccccc ccccc ccccc ccccc
%c cc cc ccc ccc cccc cccc cccc cccc ccccc ccccc ccccc ccccc
%f  0.0000000  0.000000000  0.00000000000  0.000000000000000
%f  0.0000000  0.000000000  0.00000000000  0.000000000000000
%i    0    0    0    0      0      0      0      0         0
%i    0    0    0    0      0      0      0      0         0
/* IAC                                ULTRA-RAPID PREDICTION
/* S/V CLOCKS ARE ALIGNED TO GNSS TIME                      
/* G:C1WC2W R:C1PC2P E:C1XC5X C:C2IC6I J:C1CC2S             
/* PCV:IGS20_2287 OL/AL:FES2004  NONE     YN ORB:CoN CLK:CoN
*  2023 11 20 14 15  0.00000000
PC06  -4340.685590  38370.276014 -16543.891660     32.159449
PC07  -9563.274914  26080.520575  31797.931747   -348.467049
PC08 -19705.424482  32758.836349 -18042.435982    229.298515
PC09   1549.242491  41183.995976  -6864.303142   -113.677851
PC10    850.701975  27951.243608  31949.678777    -23.999202
PC11  -2228.791760  21587.580570  17631.894661    265.846292
PC12 -14866.091029   4815.751685  23167.170125    852.505171
PC13 -13848.057365  33164.657166 -22134.898071    385.225844
PC14  -9842.305177  14554.629315 -21661.100715    821.607458
PC16  -6147.057347  36646.526902 -19384.312334   -185.085213
PC19  -1210.253381 -15658.032380  23083.941703   -965.995779
PC20  17903.123360 -11740.554465  17914.842935    100.086812
PC21 -27861.872942    299.481261  -1386.708924   -969.772306
PC22 -20720.883050 -10805.801418  15230.832804   -217.777676
PC23   9212.242191  14972.775809  21673.189417   -817.903885
PC24 -17793.202268  20589.979846  -6271.253742    614.965210
PC25  -4819.050083  24977.485264  11487.403907    259.950714
PC26 -19279.282586   5413.841598 -19469.592333   -208.895848
PC27  18490.900323   4206.324816 -20484.853734    230.822611
PC28  17568.130133  19840.483455  -8742.792574    174.264443
PC29  -6212.928657 -25097.837102 -10498.517477    203.898025
PC30   9486.665048 -14322.283130 -21997.243321     -8.722759
PC32  27875.774817   -458.903184   1286.112997   -536.170053
PC33   1199.878300  15673.169117 -23060.876118   -944.124643
PC34  -8450.924346  15591.398822  21535.264151    307.530685
PC35 -18361.417824 -19105.113177   8799.623326    498.645176
PC36   6085.463952 -25004.275938 -10758.937752   -126.335990
PC37  19203.595248  -4209.862908  19800.271546   -893.576036
PC38 -23946.522373  33403.470388  -9805.987629    118.933303
PC39  -7198.118779  34206.330550 -23375.415807     -5.743349
PC40 -14145.575055  19563.449116  34568.392593    -44.723007
PC41  20175.453740  11074.799047 -15736.121965   -871.494441
PC42 -19223.961252  11113.166289 -16854.438308   -495.579547
PC43   5414.285051  24956.025343  11226.898060     49.039711
PC44 -18809.221711  -3679.750921  20284.335773    298.575462
PC45  -9540.904505 -14396.542178 -21920.059179    -47.852429
PC46  17326.089466 -21212.769680   5212.910133   -101.243295
PE02  11983.792359 -19776.808694 -18469.439381     80.018023
PE03    208.360754 -19035.444683  22654.468946    -74.739683
PE04  18463.965047  20898.791741  -9919.390465   -261.832353
PE05  18614.151213  -6163.707975  22168.794207   4692.733565
PE07 -26290.336502 -10757.157935  -8320.263732    -88.808111
PE08 -18095.481116 -20957.002980  10450.945485   -179.920278
PE09  26272.781024  10889.387761   8215.716396   -234.479897
PE10  12208.461349  17134.498576 -20826.593780   -580.305122
PE11  15513.649144   5651.240742 -24570.595680   3219.189173
PE12   7448.657481  24813.500198 -14305.422879   -785.029381
PE13 -15308.607024  -6472.700411  24501.827507    -19.609904
PE15  -7162.722969 -25120.050174  13932.693889    -70.413215
PE19  -2759.026599  17810.929160 -23479.722217  -1176.564050
PE21 -25765.861180  14348.004717   2584.017835   -565.058295
PE24  24970.149579    251.691374  15859.168555   -442.078296
PE25  25907.057599 -14133.650985  -2214.259886     -3.149493
PE26 -14333.230552  16330.067523  20115.208945    286.474068
PE27 -25213.269034    266.347994 -15514.913180   -204.598092
PE30  -9453.437189 -14081.173465 -24269.917605   -677.485313
PE31   9795.258540  13827.104965  24275.610905    -10.335185
PE33  -5435.720710  28629.513957   5240.893691      2.716085
PE34   5014.642199 -28791.597929  -4647.661502    -78.989388
PE36  14377.949452 -15674.338478 -20578.089066   -146.661146
PG01 -13437.919986  12752.802268  18549.680488    163.237204
PG02 -14778.513825   6633.963345  21520.703865   -526.437265
PG03 -23491.451442  12210.345062  -1298.937984     -1.372780
PG04 -16379.492209   5411.509824 -20222.615729    218.071917
PG05  23659.704275  -3562.163603 -11811.001248   -151.101336
PG06   6741.855058  21984.321797 -13137.963179    500.857870
PG07  -5466.511419  25157.464355  -4926.193537      8.523791
PG08 -22139.885129  -1746.514742  14791.525231   -153.021042
PG09  -6048.210612  14268.815745 -21655.630449      2.685132
PG10  -2682.861283 -14976.961499  21925.469361    -62.143629
PG11  12539.718805  11921.810304 -20143.471863   -468.105735
PG12  24581.941774  -9952.594609   -211.396920   -449.025378
PG13  22048.838111  12316.217746   8364.396225    597.307234
PG14  -1477.130322  16802.887871  20499.999307    248.606515
PG15  22066.646235  -1135.645677  14402.767552     99.007971
PG16 -21553.519658  -3544.472451 -15740.791679   -418.731845
PG17   7704.754237  19928.271725  16128.915709    723.035307
PG18   4996.599396 -25706.624914  -3777.683316   -484.476663
PG19  15418.970857  20263.901369   7964.496734    401.519993
PG20  16599.276260   5550.421785 -19875.370733    400.673719
PG21 -15341.679136   2056.234607  22037.304125    143.767027
PG22   5636.671620  14303.914271  22102.330891     80.442683
PG23  10702.284476 -17936.324097  16308.943327    102.127987
PG24  14765.137873  -7893.029315  20133.752871   -375.646615
PG25  17076.091651 -17192.461881 -10875.910510    478.207545
PG26 -14453.737711  -9215.836217 -20500.765981    215.313456
PG27 -23227.647482 -12842.613572   3373.248435    -72.534594
PG28  -6841.040314 -23122.300442 -11164.069459    -50.514863
PG29   7519.934258 -13053.328507 -21912.149957   -610.178982
PG30   1500.519163  25949.132438   4847.348582   -466.225191
PG31 -11054.063016 -16356.962650 -17770.320956   -225.914248
PG32 -12589.480127 -19539.365747  13224.022402   -587.895949
PJ02 -30688.635089  27093.823276  15101.085202     -0.232088
PJ03 -26342.085095  25996.210679  25301.654744     -8.910060
PJ04 -31168.004074  20284.560461 -14731.629021     72.688932
PR01  23048.441899  -1145.562273  10869.735740     70.263020
PR02   9066.508829  -8667.929552  22236.952564    -22.335682
PR03  -9912.626772 -11838.561341  20365.780367     89.397168
PR04 -22894.146099  -8478.522042   7454.041275    211.875244
PR05 -23671.467065   -655.882714  -9518.114257    122.525411
PR07  10676.116229  11781.691542 -19891.935635     69.559371
PR08  23030.244729   8223.309455  -7129.923236    -73.354544
PR09 -14189.795540  20609.539209   4756.880074    154.275167
PR11  10264.539208   4722.120678  22878.251619   -214.580349
PR12  18605.916805 -11906.733780  12762.896456     33.627029
PR13  15593.764469 -20024.803450  -2540.876660    -41.511114
PR14   2355.829594 -16818.836199 -19030.130336     25.568530
PR15 -11256.195913  -3644.472248 -22581.372947     84.618966
PR16 -18423.890259  11862.276209 -13024.573109     20.798061
PR17  -7456.229011 -24352.495155   -901.130657     36.576987
PR18 -12252.016810 -16776.823048  14855.900326    112.907478
PR19 -11230.212023  -2482.649653  22773.804254   -255.334939
PR20  -3107.022038  18154.907243  17644.643212   -103.857073
PR21   7570.690853  24375.097160    252.509483    -54.854861
PR22  12115.483990  16247.827208 -15451.233132     94.442525
PR24   2385.950426 -18808.329020 -17030.433355    -32.870166
PR25   6397.274690  24690.160741    907.708982     -4.801490
PR26  22818.951607   8335.283774  -7788.135037    -15.895911
EOF
